CUBEBUG-2 (LO-74)       
1 39440U 13066AA  26177.84289460  .00004208  00000+0  38943-3 0  9993
2 39440  97.8903 126.8620 0057442 357.1295   2.9586 14.93837093678432
FUNCUBE-1 (AO-73)       
1 39444U 13066AE  26177.86706572  .00007885  00000+0  48707-3 0  9990
2 39444  97.8271 149.5153 0036628 168.0443 192.1663 15.09599724681126
UWE-3                   
1 39446U 13066AG  26177.84042902  .00004205  00000+0  36187-3 0  9992
2 39446  97.8709 133.9799 0046794 288.3987  71.2149 14.97101122679020
UNISAT-6                
1 40012U 14033C   26177.94937009  .00002671  00000+0  28944-3 0  9997
2 40012  97.7883 330.4899 0045676  37.8677 322.5737 14.88291089647616
DUCHIFAT-1              
1 40021U 14033M   26177.60974735  .00111371  00000+0  10572-2 0  9992
2 40021  98.0448 238.1065 0001317 100.0937 260.0470 15.66536146657223
QB50P1                  
1 40025U 14033R   26177.96968864  .00008965  00000+0  43898-3 0  9993
2 40025  98.0962 189.8021 0008800 180.7025 179.4197 15.18403426654518
LILACSAT-2              
1 40908U 15049K   26177.94611654  .00018626  00000+0  31344-3 0  9999
2 40908  97.4638 215.1596 0006434 202.1528 157.9448 15.51757568597263
FOX-1A (AO-85)          
1 40967U 15058D   26177.80996918  .00002228  00000+0  20611-3 0  9994
2 40967  64.7748 249.0783 0131024  52.8500 308.4494 14.91008064115000
CAS-2T & KS-1Q          
1 41847U 16066G   26177.93696725  .00001633  00000+0  23522-3 0  9992
2 41847  98.3821 253.5619 0342900  99.9996 264.0069 14.44724717506208
RADFXSAT (FOX-1B)       
1 43017U 17073E   26177.86511221  .00006924  00000+0  30344-3 0  9999
2 43017  97.4694  44.8822 0148600 295.5005  63.0920 15.12844339466858
DIWATA-2B               
1 43678U 18084H   26177.97285253  .00003346  00000+0  27039-3 0  9992
2 43678  98.1204  14.6084 0013020 139.4849 220.7345 15.00496152417683
ES'HAIL 2               
1 43700U 18090A   26177.95584477  .00000000  00000+0  00000+0 0  9992
2 43700   0.0262   7.5952 0002169 121.3916 155.9787  1.00270039 27772
FOX-1CLIFF (AO-95)      
1 43770U 18099N   26177.71185888  .00011312  00000+0  43041-3 0  9999
2 43770  97.4386 237.9235 0007135 319.9595  40.1117 15.26902666414677
ITASAT                  
1 43786U 18099AE  26177.70458023  .00006883  00000+0  33000-3 0  9990
2 43786  97.4027 229.0263 0011181 324.7706  35.2789 15.19167716414359
JY1SAT (JO-97)          
1 43803U 18099AX  26177.68609533  .00016394  00000+0  50103-3 0  9992
2 43803  97.4134 240.5542 0005069 220.1283 139.9586 15.33941851415087
UWE-4                   
1 43880U 18111E   26177.79200825  .00032006  00000+0  64044-3 0  9992
2 43880  97.5848 106.6284 0004419 293.6884  66.3901 15.46703354412269
TIANYAN 01              
1 44881U 19093C   26177.93965978  .00000668  00000+0  81323-4 0  9996
2 44881  97.7532 249.9340 0014890  57.9200 302.3460 14.86532203352862
RS-44 & BREEZE-KM R/B   
1 44909U 19096E   26177.93420375  .00000014  00000+0  25997-5 0  9998
2 44909  82.5226 333.2271 0218470 121.4708 240.7948 12.79749023303597
SALSAT                  
1 46495U 20068K   26177.95657953  .00008212  00000+0  28601-3 0  9998
2 46495  97.8848 181.6168 0007822 266.2984  93.7361 15.29932421316851
XW-3 (CAS-9)            
1 50466U 21131B   26177.98152819  .00000571  00000+0  18994-3 0  9991
2 50466  98.4983 270.3183 0005360  73.9357 286.2422 14.41366098236522
GREENCUBE (IO-117)      
1 53109U 22080E   26177.67811985 -.00000003  00000+0  00000+0 0  9990
2 53109  70.1443 294.9444 0008984 287.5437  72.4241  6.42583228 92674
UMKA 1 (RS40S)          
1 57172U 23091G   26177.96301391  .00006808  00000+0  30999-3 0  9996
2 57172  97.5052 236.6226 0014293  87.5395 272.7477 15.20927314165490
CUBESX-HSE 3 (RS42S)    
1 57178U 23091N   26177.91025911  .00014417  00000+0  47592-3 0  9990
2 57178  97.5095 243.6209 0011517  64.3283 295.9146 15.31452456165916
MONITOR-3 (RS58S)       
1 57180U 23091Q   26177.95632831  .00010983  00000+0  40334-3 0  9993
2 57180  97.5086 241.4744 0012737  70.5417 289.7197 15.28032087165784
MONITOR-4 (RS57S)       
1 57182U 23091S   26177.93484253  .00011490  00000+0  42074-3 0  9993
2 57182  97.5080 241.4246 0012711  70.8247 289.4367 15.28116026165785
MONITOR-2 (RS39S)       
1 57184U 23091U   26177.93071767  .00005249  00000+0  25364-3 0  9995
2 57184  97.5073 236.1506 0012694  81.7089 278.5584 15.18996839165433
SVYATOBOR 1 (RS60S)     
1 57187U 23091X   26177.89084847  .00008866  00000+0  33910-3 0  9990
2 57187  97.5092 241.7618 0010498  65.1884 295.0445 15.26773441165792
VIZARD-METEO (RS38S)    
1 57189U 23091Z   26177.91852441  .00018222  00000+0  51574-3 0  9991
2 57189  97.5095 247.5998 0007517  47.5143 312.6735 15.36325593166186
POLYTECH-UNIVERSE 3 (R*)
1 57191U 23091AB  26177.95661801  .00005675  00000+0  27190-3 0  9991
2 57191  97.5049 235.6806 0017082  95.9629 264.3553 15.19203654165430
UTMN 2 (RS27S)          
1 57203U 23091AP  26177.92255566  .00013989  00000+0  45057-3 0  9998
2 57203  97.5091 245.2792 0008618  54.2364 305.9678 15.32281125166032
